{
    "links": {
        "self": "http://www.neowsapp.com/rest/v1/neo/3545712?api_key=iIulBulltgU6a56xZRHN4H3l9WmuAYTsLGpBGhQ2"
    },
    "id": "3545712",
    "neo_reference_id": "3545712",
    "name": "(2010 RH43)",
    "designation": "2010 RH43",
    "nasa_jpl_url": "http://ssd.jpl.nasa.gov/sbdb.cgi?sstr=3545712",
    "absolute_magnitude_h": 26.2,
    "estimated_diameter": {
        "kilometers": {
            "estimated_diameter_min": 0.0152951935,
            "estimated_diameter_max": 0.0342010925
        },
        "meters": {
            "estimated_diameter_min": 15.2951935344,
            "estimated_diameter_max": 34.201092472
        },
        "miles": {
            "estimated_diameter_min": 0.0095039897,
            "estimated_diameter_max": 0.021251567
        },
        "feet": {
            "estimated_diameter_min": 50.1810827555,
            "estimated_diameter_max": 112.2083122258
        }
    },
    "is_potentially_hazardous_asteroid": false,
    "close_approach_data": [
        {
            "close_approach_date": "2010-09-13",
            "close_approach_date_full": "2010-Sep-13 05:49",
            "epoch_date_close_approach": 1284356940000,
            "relative_velocity": {
                "kilometers_per_second": "4.6984751209",
                "kilometers_per_hour": "16914.5104353402",
                "miles_per_hour": "10510.0189980034"
            },
            "miss_distance": {
                "astronomical": "0.0714808598",
                "lunar": "27.8060544622",
                "kilometers": "10693384.371848626",
                "miles": "6644560.9362819988"
            },
            "orbiting_body": "Earth"
        }
    ],
    "orbital_data": {
        "orbit_id": "11",
        "orbit_determination_date": "2017-04-06 08:56:47",
        "first_observation_date": "2010-09-04",
        "last_observation_date": "2010-10-08",
        "data_arc_in_days": 34,
        "observations_used": 27,
        "orbit_uncertainty": "7",
        "minimum_orbit_intersection": ".073018",
        "jupiter_tisserand_invariant": "3.984",
        "epoch_osculation": "2459000.5",
        "eccentricity": ".3971533230762408",
        "semi_major_axis": "1.788374155386449",
        "inclination": "3.37802304780228",
        "ascending_node_longitude": "170.4024901313822",
        "orbital_period": "873.5464526575466",
        "perihelion_distance": "1.078115416671055",
        "perihelion_argument": "183.1005174525172",
        "aphelion_distance": "2.498632894101842",
        "perihelion_time": "2458950.163214908027",
        "mean_anomaly": "20.74445220168976",
        "mean_motion": ".4121131725791914",
        "equinox": "J2000",
        "orbit_class": {
            "orbit_class_type": "AMO",
            "orbit_class_description": "Near-Earth asteroid orbits similar to that of 1221 Amor",
            "orbit_class_range": "1.017 AU < q (perihelion) < 1.3 AU"
        }
    },
    "is_sentry_object": false
}